O3B MPOWER F1           
1 54755U 22174A   24228.32199253 -.00000015  00000+0  00000+0 0  9999
2 54755   0.0581 346.8506 0006718 152.8170 242.9271  5.00113870 31792
